norad_id,name,regime,epoch,line1,line2,inclination,eccentricity,mean_motion,raan,arg_pericenter,mean_anomaly
40349,O3B FM11,MEO,16141.78710019,1 40349U 14083B   16141.78710019 -.00000024 +00000-0 +00000-0 0 0001\,2 40349 000.0402 355.4873 0003283 059.4615 305.0841 05.0011605002598,0.0402,0.0003283,5.0011605,355.4873,59.4615,305.0841
40349,O3B FM11,MEO,16142.58666230,1 40349U 14083B   16142.58666230 -.00000023 +00000-0 +00000-0 0 0001\,2 40349 000.0401 355.4253 0003283 060.3225 304.2857 05.0011606102602,0.0401,0.0003283,5.00116061,355.4253,60.3225,304.2857
40349,O3B FM11,MEO,16143.18633377,1 40349U 14083B   16143.18633377 -.00000022 +00000-0 +00000-0 0 0001\,2 40349 000.0400 355.4047 0003284 060.8083 303.8208 05.0011606702605,0.04,0.0003284,5.00116067,355.4047,60.8083,303.8208
40349,O3B FM11,MEO,16144.38567648,1 40349U 14083B   16144.38567648 -.00000020  00000-0  00000+0 0  1173\,2 40349   0.0399 355.4171 0003265  62.3061 302.3111  5.00116093 26119,0.0399,0.0003265,5.00116093,355.4171,62.3061,302.3111
40349,O3B FM11,MEO,16145.58501923,1 40349U 14083B   16145.58501923 -.00000019 +00000-0 +00000-0 0 0001\,2 40349 000.0398 355.3455 0003265 063.4327 301.2565 05.0011607602617,0.0398,0.0003265,5.00116076,355.3455,63.4327,301.2565
40349,O3B FM11,MEO,16146.38458083,1 40349U 14083B   16146.38458083 -.00000018 +00000-0 +00000-0 0 0001\,2 40349 000.0397 355.3033 0003268 064.2085 300.5231 05.0011607302621,0.0397,0.0003268,5.00116073,355.3033,64.2085,300.5231
40349,O3B FM11,MEO,16147.78381388,1 40349U 14083B   16147.78381388 -.00000017 +00000-0 +00000-0 0 0001\,2 40349 000.0396 355.2423 0003270 065.6161 299.1768 05.0011603802628,0.0396,0.000327,5.00116038,355.2423,65.6161,299.1768
40349,O3B FM11,MEO,16148.58337553,1 40349U 14083B   16148.58337553 -.00000017  00000-0  00000+0 0  1186\,2 40349   0.0395 355.2523 0003262  66.6315 298.1515  5.00116029 26322,0.0395,0.0003262,5.00116029,355.2523,66.6315,298.1515
40349,O3B FM11,MEO,16149.78271792,1 40349U 14083B   16149.78271792 -.00000017 +00000-0 +00000-0 0 0001\,2 40349 000.0394 355.1407 0003272 067.8732 297.0216 05.0011601202638,0.0394,0.0003272,5.00116012,355.1407,67.8732,297.0216
40349,O3B FM11,MEO,16150.78216993,1 40349U 14083B   16150.78216993 -.00000017 +00000-0 +00000-0 0 0001\,2 40349 000.0393 355.1066 0003272 068.2906 296.6383 05.0011599502643,0.0393,0.0003272,5.00115995,355.1066,68.2906,296.6383
40349,O3B FM11,MEO,16151.38184109,1 40349U 14083B   16151.38184109 -.00000017 +00000-0 +00000-0 0 0001\,2 40349 000.0392 355.0172 0003270 068.8674 296.1509 05.0011599402646,0.0392,0.000327,5.00115994,355.0172,68.8674,296.1509
40349,O3B FM11,MEO,16152.38129295,1 40349U 14083B   16152.38129295 -.00000018 +00000-0 +00000-0 0 0001\,2 40349 000.0391 354.9827 0003268 069.7493 295.3035 05.0011599702651,0.0391,0.0003268,5.00115997,354.9827,69.7493,295.3035
40349,O3B FM11,MEO,16153.38074476,1 40349U 14083B   16153.38074476 -.00000019  00000-0  00000+0 0  1195\,2 40349   0.0391 354.9255 0003265  70.7750 294.3350  5.00116007 26565,0.0391,0.0003265,5.00116007,354.9255,70.775,294.335
40349,O3B FM11,MEO,16154.38019669,1 40349U 14083B   16154.38019669 -.00000021 +00000-0 +00000-0 0 0001\,2 40349 000.0390 354.8881 0003262 071.6539 293.4933 05.0011600102661,0.039,0.0003262,5.00116001,354.8881,71.6539,293.4933
40349,O3B FM11,MEO,16155.37964850,1 40349U 14083B   16155.37964850 -.00000022 +00000-0 +00000-0 0 0001\,2 40349 000.0389 354.9094 0003260 072.2472 292.8784 05.0011600402666,0.0389,0.000326,5.00116004,354.9094,72.2472,292.8784
40349,O3B FM11,MEO,16156.37910052,1 40349U 14083B   16156.37910052 -.00000024 +00000-0 +00000-0 0 0001\,2 40349 000.0388 354.8483 0003258 073.1189 292.0675 05.0011599202671,0.0388,0.0003258,5.00115992,354.8483,73.1189,292.0675
40349,O3B FM11,MEO,16157.17866183,1 40349U 14083B   16157.17866183 -.00000026 +00000-0 +00000-0 0 0001\,2 40349 000.0388 354.8333 0003256 073.8108 291.3904 05.0011601002675,0.0388,0.0003256,5.0011601,354.8333,73.8108,291.3904
40349,O3B FM11,MEO,16158.17811355,1 40349U 14083B   16158.17811355 -.00000028  00000-0  00000+0 0  1204\,2 40349   0.0387 354.8030 0003255  74.6448 290.5864  5.00116025 26801,0.0387,0.0003255,5.00116025,354.803,74.6448,290.5864
40349,O3B FM11,MEO,16158.37800391,1 40349U 14083B   16158.37800391 -.00000028 +00000-0 +00000-0 0 0001\,2 40349 000.0387 354.8120 0003255 074.8187 290.4034 05.0011602802681,0.0387,0.0003255,5.00116028,354.812,74.8187,290.4034
40349,O3B FM11,MEO,16159.37745590,1 40349U 14083B   16159.37745590 -.00000030 +00000-0 +00000-0 0 0001\,2 40349 000.0386 354.7807 0003254 075.7449 289.5083 05.0011602902686,0.0386,0.0003254,5.00116029,354.7807,75.7449,289.5083
40349,O3B FM11,MEO,16160.37690789,1 40349U 14083B   16160.37690789 -.00000031 +00000-0 +00000-0 0 0001\,2 40349 000.0385 354.7801 0003253 076.4106 288.8431 05.0011603402691,0.0385,0.0003253,5.00116034,354.7801,76.4106,288.8431
40349,O3B FM11,MEO,16161.17646942,1 40349U 14083B   16161.17646942 -.00000031 +00000-0 +00000-0 0 0001\,2 40349 000.0384 354.7759 0003253 077.1566 288.1013 05.0011605002695,0.0384,0.0003253,5.0011605,354.7759,77.1566,288.1013
40349,O3B FM11,MEO,16162.37581194,1 40349U 14083B   16162.37581194 -.00000031  00000-0  00000+0 0  1211\,2 40349   0.0383 354.6922 0003254  78.1554 287.1865  5.00116063 27010,0.0383,0.0003254,5.00116063,354.6922,78.1554,287.1865
40349,O3B FM11,MEO,16163.17537355,1 40349U 14083B   16163.17537355 -.00000031 +00000-0 +00000-0 0 0001\,2 40349 000.0382 354.6495 0003253 078.9922 286.3927 05.0011608202705,0.0382,0.0003253,5.00116082,354.6495,78.9922,286.3927
40349,O3B FM11,MEO,16165.37416855,1 40349U 14083B   16165.37416855 -.00000028 +00000-0 +00000-0 0 0001\,2 40349 000.0381 354.5410 0003256 080.8004 284.6940 05.0011608902716,0.0381,0.0003256,5.00116089,354.541,80.8004,284.694
40349,O3B FM11,MEO,16166.17373032,1 40349U 14083B   16166.17373032 -.00000027 +00000-0 +00000-0 0 0001\,2 40349 000.0380 354.5129 0003251 081.6390 283.8839 05.0011609602720,0.038,0.0003251,5.00116096,354.5129,81.639,283.8839
40349,O3B FM11,MEO,16167.17318252,1 40349U 14083B   16167.17318252 -.00000026  00000-0  00000+0 0  1222\,2 40349   0.0380 354.4470 0003252  82.5570 283.0324  5.00116101 27252,0.038,0.0003252,5.00116101,354.447,82.557,283.0324
40349,O3B FM11,MEO,16167.37307276,1 40349U 14083B   16167.37307276 -.00000025 +00000-0 +00000-0 0 0001\,2 40349 000.0379 354.4575 0003252 082.6126 282.9663 05.0011611502726,0.0379,0.0003252,5.00116115,354.4575,82.6126,282.9663
40349,O3B FM11,MEO,16168.37252480,1 40349U 14083B   16168.37252480 -.00000024 +00000-0 +00000-0 0 0001\,2 40349 000.0379 354.4655 0003250 083.3816 282.1898 05.0011612502731,0.0379,0.000325,5.00116125,354.4655,83.3816,282.1898
40349,O3B FM11,MEO,16169.17208659,1 40349U 14083B   16169.17208659 -.00000023 +00000-0 +00000-0 0 0001\,2 40349 000.0378 354.4143 0003254 084.0532 281.5698 05.0011611302735,0.0378,0.0003254,5.00116113,354.4143,84.0532,281.5698
40349,O3B FM11,MEO,16170.37142918,1 40349U 14083B   16170.37142918 -.00000021 +00000-0 +00000-0 0 0001\,2 40349 000.0377 354.3565 0003252 085.1942 280.4869 05.0011609702741,0.0377,0.0003252,5.00116097,354.3565,85.1942,280.4869
40349,O3B FM11,MEO,16171.37088159,1 40349U 14083B   16171.37088159 -.00000020  00000-0  00000+0 0  1234\,2 40349   0.0377 354.3981 0003238  86.3823 279.2574  5.00116060 27462,0.0377,0.0003238,5.0011606,354.3981,86.3823,279.2574
40349,O3B FM11,MEO,16172.37033335,1 40349U 14083B   16172.37033335 -.00000019 +00000-0 +00000-0 0 0001\,2 40349 000.0376 354.3392 0003233 087.2632 278.4353 05.0011606902751,0.0376,0.0003233,5.00116069,354.3392,87.2632,278.4353
40349,O3B FM11,MEO,16173.36978520,1 40349U 14083B   16173.36978520 -.00000018 +00000-0 +00000-0 0 0001\,2 40349 000.0375 354.3133 0003235 088.2489 277.4757 05.0011606202756,0.0375,0.0003235,5.00116062,354.3133,88.2489,277.4757
40349,O3B FM11,MEO,16174.36923723,1 40349U 14083B   16174.36923723 -.00000017 +00000-0 +00000-0 0 0001\,2 40349 000.0374 354.2569 0003231 089.1691 276.6117 05.0011603902761,0.0374,0.0003231,5.00116039,354.2569,89.1691,276.6117
40349,O3B FM11,MEO,16175.36868912,1 40349U 14083B   16175.36868912 -.00000017 +00000-0 +00000-0 0 0001\,2 40349 000.0374 354.2102 0003226 090.1895 275.6379 05.0011602602766,0.0374,0.0003226,5.00116026,354.2102,90.1895,275.6379
40349,O3B FM11,MEO,16176.36814091,1 40349U 14083B   16176.36814091 -.00000016  00000-0  00000+0 0  1246\,2 40349   0.0373 354.2154 0003223  90.9696 274.8524  5.00116021 27713,0.0373,0.0003223,5.00116021,354.2154,90.9696,274.8524
40349,O3B FM11,MEO,16177.36759281,1 40349U 14083B   16177.36759281 -.00000016 +00000-0 +00000-0 0 0001\,2 40349 000.0372 354.1648 0003218 091.8576 274.0148 05.0011600802776,0.0372,0.0003218,5.00116008,354.1648,91.8576,274.0148
40349,O3B FM11,MEO,16178.76682563,1 40349U 14083B   16178.76682563 -.00000017 +00000-0 +00000-0 0 0001\,2 40349 000.0371 354.1170 0003209 093.2593 272.6606 05.0011598002783,0.0371,0.0003209,5.0011598,354.117,93.2593,272.6606
40349,O3B FM11,MEO,16179.36649673,1 40349U 14083B   16179.36649673 -.00000017 +00000-0 +00000-0 0 0001\,2 40349 000.0371 354.0890 0003205 093.9097 272.0381 05.0011597802786,0.0371,0.0003205,5.00115978,354.089,93.9097,272.0381
40349,O3B FM11,MEO,16180.36594857,1 40349U 14083B   16180.36594857 -.00000018 +00000-0 +00000-0 0 0001\,2 40349 000.0370 354.0660 0003198 094.9553 271.0151 05.0011597402791,0.037,0.0003198,5.00115974,354.066,94.9553,271.0151
40349,O3B FM11,MEO,16181.36540030,1 40349U 14083B   16181.36540030 -.00000020  00000-0  00000+0 0  1257\,2 40349   0.0369 354.0506 0003194  95.7460 270.2394  5.00115978 27968,0.0369,0.0003194,5.00115978,354.0506,95.746,270.2394
40349,O3B FM11,MEO,16182.36485206,1 40349U 14083B   16182.36485206 -.00000021 +00000-0 +00000-0 0 0001\,2 40349 000.0369 354.0131 0003190 096.6610 269.3614 05.0011598002801,0.0369,0.000319,5.0011598,354.0131,96.661,269.3614
